start=new Date('2022-02-26T00:00:00.000Z').valueOf();
sats=[{"SITE":"AFETR","CLASSIFICATION_TYPE":"U","PERIOD":"95.592","MEAN_ANOMALY":"277.6732","ARG_OF_PERICENTER":"82.4390","DECAY_DATE":null,"TIME_SYSTEM":"UTC","TLE_LINE1":"1 47645U 21012AB  22056.79573967  .00002402  00000-0  18006-3 0  9996","PERIAPSIS":"546.389","TLE_LINE2":"2 47645  53.0532 173.6884 0001174  82.4390 277.6732 15.06403894 58380","RA_OF_ASC_NODE":"173.6884","LAUNCH_DATE":"2021-02-16","NORAD_CAT_ID":"47645","ECCENTRICITY":"0.00011740","OBJECT_NAME":"STARLINK-2027","REF_FRAME":"TEME","FILE":"3323947","APOAPSIS":"548.015","ELEMENT_SET_NO":"999","MEAN_MOTION_DOT":"0.00002402","INCLINATION":"53.0532","SEMIMAJOR_AXIS":"6925.337","RCS_SIZE":"LARGE","MEAN_MOTION_DDOT":"0.0000000000000","GP_ID":"197031644","EPOCH":"2022-02-25T19:05:51.907488","OBJECT_ID":"2021-012AB","CENTER_NAME":"EARTH","MEAN_MOTION":"15.06403894","OBJECT_TYPE":"PAYLOAD","MEAN_ELEMENT_THEORY":"SGP4","BSTAR":"0.00018006000000","COUNTRY_CODE":"US","EPHEMERIS_TYPE":"0","REV_AT_EPOCH":"5838"},{"CENTER_NAME":"EARTH","EPOCH":"2022-02-25T14:00:01.057248","OBJECT_ID":"2021-012AC","GP_ID":"196986658","COUNTRY_CODE":"US","EPHEMERIS_TYPE":"0","REV_AT_EPOCH":"5834","MEAN_ELEMENT_THEORY":"SGP4","OBJECT_TYPE":"PAYLOAD","BSTAR":"0.00017844000000","MEAN_MOTION":"15.06404006","REF_FRAME":"TEME","ECCENTRICITY":"0.00017380","OBJECT_NAME":"STARLINK-2028","NORAD_CAT_ID":"47646","LAUNCH_DATE":"2021-02-16","RA_OF_ASC_NODE":"139.6582","MEAN_MOTION_DDOT":"0.0000000000000","INCLINATION":"53.0559","MEAN_MOTION_DOT":"0.00002378","RCS_SIZE":"LARGE","SEMIMAJOR_AXIS":"6925.336","ELEMENT_SET_NO":"999","FILE":"3322938","APOAPSIS":"548.405","TIME_SYSTEM":"UTC","TLE_LINE2":"2 47646  53.0559 139.6582 0001738  52.2716 307.8430 15.06404006 58343","PERIAPSIS":"545.998","TLE_LINE1":"1 47646U 21012AC  22056.58334557  .00002378  00000-0  17844-3 0  9995","PERIOD":"95.592","SITE":"AFETR","CLASSIFICATION_TYPE":"U","DECAY_DATE":null,"ARG_OF_PERICENTER":"52.2716","MEAN_ANOMALY":"307.8430"},{"ELEMENT_SET_NO":"999","FILE":"3323947","APOAPSIS":"548.176","MEAN_MOTION_DDOT":"0.0000000000000","SEMIMAJOR_AXIS":"6925.368","RCS_SIZE":"LARGE","MEAN_MOTION_DOT":"0.00000486","INCLINATION":"53.0556","NORAD_CAT_ID":"47647","LAUNCH_DATE":"2021-02-16","RA_OF_ASC_NODE":"204.2442","REF_FRAME":"TEME","OBJECT_NAME":"STARLINK-2030","ECCENTRICITY":"0.00013610","BSTAR":"0.00005151800000","MEAN_ELEMENT_THEORY":"SGP4","OBJECT_TYPE":"PAYLOAD","MEAN_MOTION":"15.06393615","REV_AT_EPOCH":"5797","COUNTRY_CODE":"US","EPHEMERIS_TYPE":"0","OBJECT_ID":"2021-012AD","EPOCH":"2022-02-25T16:13:24.335904","GP_ID":"197032646","CENTER_NAME":"EARTH","ARG_OF_PERICENTER":"61.6345","MEAN_ANOMALY":"298.4781","DECAY_DATE":null,"CLASSIFICATION_TYPE":"U","SITE":"AFETR","PERIOD":"95.593","TLE_LINE1":"1 47647U 21012AD  22056.67597611  .00000486  00000-0  51518-4 0  9993","TLE_LINE2":"2 47647  53.0556 204.2442 0001361  61.6345 298.4781 15.06393615 57974","PERIAPSIS":"546.291","TIME_SYSTEM":"UTC"},{"CENTER_NAME":"EARTH","GP_ID":"197031894","EPOCH":"2022-02-25T19:11:12.902496","OBJECT_ID":"2021-012AE","EPHEMERIS_TYPE":"0","COUNTRY_CODE":"US","REV_AT_EPOCH":"5827","MEAN_MOTION":"15.06394236","OBJECT_TYPE":"PAYLOAD","MEAN_ELEMENT_THEORY":"SGP4","BSTAR":"-0.00001209900000","ECCENTRICITY":"0.00015390","OBJECT_NAME":"STARLINK-2031","REF_FRAME":"TEME","LAUNCH_DATE":"2021-02-16","RA_OF_ASC_NODE":"183.6866","NORAD_CAT_ID":"47648","MEAN_MOTION_DOT":"-0.00000462","INCLINATION":"53.0557","RCS_SIZE":"MEDIUM","SEMIMAJOR_AXIS":"6925.366","MEAN_MOTION_DDOT":"0.0000000000000","FILE":"3323947","APOAPSIS":"548.297","ELEMENT_SET_NO":"999","TIME_SYSTEM":"UTC","PERIAPSIS":"546.165","TLE_LINE2":"2 47648  53.0557 183.6866 0001539  60.5441 299.5701 15.06394236 58276","TLE_LINE1":"1 47648U 21012AE  22056.79945489 -.00000462  00000-0 -12099-4 0  9994","PERIOD":"95.593","SITE":"AFETR","CLASSIFICATION_TYPE":"U","DECAY_DATE":null,"MEAN_ANOMALY":"299.5701","ARG_OF_PERICENTER":"60.5441"},{"SEMIMAJOR_AXIS":"6925.340","RCS_SIZE":"LARGE","INCLINATION":"53.0548","MEAN_MOTION_DOT":"0.00001311","MEAN_MOTION_DDOT":"0.0000000000000","FILE":"3323947","APOAPSIS":"548.329","ELEMENT_SET_NO":"999","ECCENTRICITY":"0.00016230","OBJECT_NAME":"STARLINK-2032","REF_FRAME":"TEME","RA_OF_ASC_NODE":"183.9654","LAUNCH_DATE":"2021-02-16","NORAD_CAT_ID":"47649","REV_AT_EPOCH":"5826","EPHEMERIS_TYPE":"0","COUNTRY_CODE":"US","MEAN_MOTION":"15.06402886","BSTAR":"0.00010688000000","MEAN_ELEMENT_THEORY":"SGP4","OBJECT_TYPE":"PAYLOAD","CENTER_NAME":"EARTH","GP_ID":"197032144","OBJECT_ID":"2021-012AF","EPOCH":"2022-02-25T17:40:58.715616","DECAY_DATE":null,"MEAN_ANOMALY":"292.9029","ARG_OF_PERICENTER":"67.2132","PERIOD":"95.592","CLASSIFICATION_TYPE":"U","SITE":"AFETR","PERIAPSIS":"546.081","TLE_LINE2":"2 47649  53.0548 183.9654 0001623  67.2132 292.9029 15.06402886 58260","TLE_LINE1":"1 47649U 21012AF  22056.73679069  .00001311  00000-0  10688-3 0  9990","TIME_SYSTEM":"UTC"},{"SEMIMAJOR_AXIS":"6925.363","RCS_SIZE":"LARGE","MEAN_MOTION_DOT":"-0.00000684","INCLINATION":"53.0544","MEAN_MOTION_DDOT":"0.0000000000000","FILE":"3323947","APOAPSIS":"548.199","ELEMENT_SET_NO":"999","ECCENTRICITY":"0.00014010","OBJECT_NAME":"STARLINK-2033","REF_FRAME":"TEME","LAUNCH_DATE":"2021-02-16","RA_OF_ASC_NODE":"184.0316","NORAD_CAT_ID":"47650","REV_AT_EPOCH":"5824","EPHEMERIS_TYPE":"0","COUNTRY_CODE":"US","MEAN_MOTION":"15.06395136","BSTAR":"-0.00002702700000","OBJECT_TYPE":"PAYLOAD","MEAN_ELEMENT_THEORY":"SGP4","CENTER_NAME":"EARTH","GP_ID":"197032391","OBJECT_ID":"2021-012AG","EPOCH":"2022-02-25T17:19:44.967936","DECAY_DATE":null,"MEAN_ANOMALY":"291.1639","ARG_OF_PERICENTER":"68.9500","PERIOD":"95.592","CLASSIFICATION_TYPE":"U","SITE":"AFETR","PERIAPSIS":"546.258","TLE_LINE2":"2 47650  53.0544 184.0316 0001401  68.9500 291.1639 15.06395136 58241","TLE_LINE1":"1 47650U 21012AG  22056.72204824 -.00000684  00000-0 -27027-4 0  9994","TIME_SYSTEM":"UTC"},{"MEAN_MOTION":"15.06399335","MEAN_ELEMENT_THEORY":"SGP4","OBJECT_TYPE":"PAYLOAD","BSTAR":"0.00001808800000","COUNTRY_CODE":"US","EPHEMERIS_TYPE":"0","REV_AT_EPOCH":"5799","GP_ID":"197033146","EPOCH":"2022-02-25T19:44:21.377760","OBJECT_ID":"2021-012AH","CENTER_NAME":"EARTH","APOAPSIS":"548.119","FILE":"3323947","ELEMENT_SET_NO":"999","INCLINATION":"53.0550","MEAN_MOTION_DOT":"-0.00000012","RCS_SIZE":"LARGE","SEMIMAJOR_AXIS":"6925.351","MEAN_MOTION_DDOT":"0.0000000000000","LAUNCH_DATE":"2021-02-16","RA_OF_ASC_NODE":"203.5848","NORAD_CAT_ID":"47651","ECCENTRICITY":"0.00013050","OBJECT_NAME":"STARLINK-2035","REF_FRAME":"TEME","TLE_LINE1":"1 47651U 21012AH  22056.82246965 -.00000012  00000-0  18088-4 0  9999","PERIAPSIS":"546.312","TLE_LINE2":"2 47651  53.0550 203.5848 0001305  75.2594 284.8539 15.06399335 57997","TIME_SYSTEM":"UTC","MEAN_ANOMALY":"284.8539","ARG_OF_PERICENTER":"75.2594","DECAY_DATE":null,"SITE":"AFETR","CLASSIFICATION_TYPE":"U","PERIOD":"95.592"},{"TIME_SYSTEM":"UTC","TLE_LINE1":"1 47652U 21012AJ  22056.78287154  .00001718  00000-0  13420-3 0  9997","TLE_LINE2":"2 47652  53.0539 203.7604 0001597  62.8187 297.2965 15.06395558 57983","PERIAPSIS":"546.121","CLASSIFICATION_TYPE":"U","SITE":"AFETR","PERIOD":"95.592","ARG_OF_PERICENTER":"62.8187","MEAN_ANOMALY":"297.2965","DECAY_DATE":null,"OBJECT_ID":"2021-012AJ","EPOCH":"2022-02-25T18:47:20.101056","GP_ID":"197031395","CENTER_NAME":"EARTH","BSTAR":"0.00013420000000","MEAN_ELEMENT_THEORY":"SGP4","OBJECT_TYPE":"PAYLOAD","MEAN_MOTION":"15.06395558","REV_AT_EPOCH":"5798","EPHEMERIS_TYPE":"0","COUNTRY_CODE":"US","NORAD_CAT_ID":"47652","LAUNCH_DATE":"2021-02-16","RA_OF_ASC_NODE":"203.7604","REF_FRAME":"TEME","OBJECT_NAME":"STARLINK-2036","ECCENTRICITY":"0.00015970","ELEMENT_SET_NO":"999","FILE":"3323947","APOAPSIS":"548.333","MEAN_MOTION_DDOT":"0.0000000000000","SEMIMAJOR_AXIS":"6925.362","RCS_SIZE":"LARGE","INCLINATION":"53.0539","MEAN_MOTION_DOT":"0.00001718"},{"OBJECT_NAME":"STARLINK-2037","ECCENTRICITY":"0.00014990","REF_FRAME":"TEME","LAUNCH_DATE":"2021-02-16","RA_OF_ASC_NODE":"183.4718","NORAD_CAT_ID":"47653","MEAN_MOTION_DOT":"-0.00000007","INCLINATION":"53.0544","RCS_SIZE":"LARGE","SEMIMAJOR_AXIS":"6925.350","MEAN_MOTION_DDOT":"0.0000000000000","APOAPSIS":"548.253","FILE":"3323947","ELEMENT_SET_NO":"999","CENTER_NAME":"EARTH","GP_ID":"197031645","EPOCH":"2022-02-25T20:14:54.368448","OBJECT_ID":"2021-012AK","EPHEMERIS_TYPE":"0","COUNTRY_CODE":"US","REV_AT_EPOCH":"5826","MEAN_MOTION":"15.06399689","OBJECT_TYPE":"PAYLOAD","MEAN_ELEMENT_THEORY":"SGP4","BSTAR":"0.00001839500000","PERIOD":"95.592","SITE":"AFETR","CLASSIFICATION_TYPE":"U","DECAY_DATE":null,"MEAN_ANOMALY":"307.4520","ARG_OF_PERICENTER":"52.6605","TIME_SYSTEM":"UTC","PERIAPSIS":"546.176","TLE_LINE2":"2 47653  53.0544 183.4718 0001499  52.6605 307.4520 15.06399689 58265","TLE_LINE1":"1 47653U 21012AK  22056.84368482 -.00000007  00000-0  18395-4 0  9997"},{"TLE_LINE1":"1 47654U 21012AL  22056.78654746  .00000137  00000-0  28099-4 0  9997","PERIAPSIS":"546.163","TLE_LINE2":"2 47654  53.0551 203.7315 0001517  73.5531 286.5624 15.06400068 57988","TIME_SYSTEM":"UTC","MEAN_ANOMALY":"286.5624","ARG_OF_PERICENTER":"73.5531","DECAY_DATE":null,"SITE":"AFETR","CLASSIFICATION_TYPE":"U","PERIOD":"95.592","MEAN_MOTION":"15.06400068","MEAN_ELEMENT_THEORY":"SGP4","OBJECT_TYPE":"PAYLOAD","BSTAR":"0.00002809900000","COUNTRY_CODE":"US","EPHEMERIS_TYPE":"0","REV_AT_EPOCH":"5798","GP_ID":"197032891","EPOCH":"2022-02-25T18:52:37.700544","OBJECT_ID":"2021-012AL","CENTER_NAME":"EARTH","APOAPSIS":"548.264","FILE":"3323947","ELEMENT_SET_NO":"999","INCLINATION":"53.0551","MEAN_MOTION_DOT":"0.00000137","SEMIMAJOR_AXIS":"6925.348","RCS_SIZE":"LARGE","MEAN_MOTION_DDOT":"0.0000000000000","RA_OF_ASC_NODE":"203.7315","LAUNCH_DATE":"2021-02-16","NORAD_CAT_ID":"47654","ECCENTRICITY":"0.00015170","OBJECT_NAME":"STARLINK-2038","REF_FRAME":"TEME"}];
